ANIK F1R                
1 28868U 05036A   25318.50331339 -.00000070  00000+0  00000+0 0  9998
2 28868   3.7629  79.2375 0001501 137.1585 271.3751  1.00272386 44307
SYRACUSE 3A             
1 28885U 05041B   25319.45720854  .00000160  00000+0  00000+0 0  9991
2 28885   4.0959  78.4857 0002529 157.2005   9.3324  1.00631316 73605
INMARSAT 4-F2           
1 28899U 05044A   25319.53187774 -.00000253  00000+0  00000+0 0  9990
2 28899   4.8179  43.6475 0003495 202.2647 143.9486  1.00271304 73373
METEOSAT-9 (MSG-2)      
1 28912U 05049B   25317.93921103  .00000127  00000+0  00000+0 0  9994
2 28912   8.8739  56.2418 0003152 193.0866 187.7969  1.00275132  4843
EUTELSAT 174A           
1 28924U 05052A   25319.41526162  .00000019  00000+0  00000+0 0  9992
2 28924   3.6779  79.1716 0006464 158.1251 140.9961  1.00274116 50189
ECHOSTAR 10             
1 28935U 06003A   25319.44498950 -.00000049  00000+0  00000+0 0  9991
2 28935   0.0265 336.0759 0002903 204.3754 284.3438  1.00271855 72329
SPAINSAT                
1 28945U 06007A   25318.93227414 -.00000211  00000+0  00000+0 0  9995
2 28945   0.0139 196.8056 0005618  30.6552 132.5140  1.00272106 72070
JCSAT-5A                
1 29045U 06010A   25319.47826867 -.00000320  00000+0  00000+0 0  9999
2 29045   0.5543  86.9596 0000247  68.3416 203.7614  1.00269116 71628
ASTRA 1KR               
1 29055U 06012A   25319.34767103  .00000126  00000+0  00000+0 0  9998
2 29055   0.0384  50.3526 0006165 187.9431 320.7595  1.00271545 43553
GALAXY 16 (G-16)        
1 29236U 06023A   25319.49853448  .00000000  00000+0  00000+0 0  9996
2 29236   0.0215 124.1539 0002519 113.4533 257.6893  1.00269759 70831
EUTELSAT HOTBIRD 13B    
1 29270U 06032A   25319.45859522  .00000163  00000+0  00000+0 0  9999
2 29270   1.1084  84.5906 0003479 146.5040  21.8906  1.00270703 45163
JCSAT-3A                
1 29272U 06033A   25319.47748866 -.00000337  00000+0  00000+0 0  9996
2 29272   0.0170 294.1144 0002232 303.9240 116.6993  1.00273201 45591
SYRACUSE 3B             
1 29273U 06033B   25319.23872060  .00000029  00000+0  00000+0 0  9992
2 29273   2.3502  82.7539 0004569 158.2749 262.8348  1.00271320 70535
KOREASAT 5 (MUGUNGWHA 5)
1 29349U 06034A   25319.47454198 -.00000350  00000+0  00000+0 0  9999
2 29349   1.2299  85.9000 0001546 173.5197  79.2995  1.00273001 39178
DIRECTV 9S              
1 29494U 06043A   25319.43207507 -.00000106  00000+0  00000+0 0  9995
2 29494   1.8681  83.5072 0003057 156.6800 228.9432  1.00272384 49246
OPTUS D1                
1 29495U 06043B   25319.45461596 -.00000174  00000+0  00000+0 0  9993
2 29495   2.4828  82.3099 0003897 154.6243 133.5485  1.00271977 69972
BADR-4                  
1 29526U 06051A   25319.45729522  .00000153  00000+0  00000+0 0  9999
2 29526   1.4520  83.4048 0007310 186.6573 335.6113  1.00273788 49126
WILDBLUE-1              
1 29643U 06054A   25319.44712618 -.00000041  00000+0  00000+0 0  9996
2 29643   2.2504  83.2166 0001417 151.6121 229.7528  1.00272333 51658
SKYNET 5A               
1 30794U 07007B   25319.36572593 -.00000263  00000+0  00000+0 0  9997
2 30794   4.7554  76.3258 0004128 171.7324  33.5449  1.00270770 68557
ANIK F3                 
1 31102U 07009A   25318.71512796  .00000002  00000+0  00000+0 0  9990
2 31102   0.6418  86.4024 0002759 151.9766 314.4806  1.00274008 44411
ASTRA 1L                
1 31306U 07016A   25319.31325439  .00000127  00000+0  00000+0 0  9995
2 31306   0.7679  82.7200 0003548 158.9080 305.2114  1.00269638 42843
GALAXY 17 (G-17)        
1 31307U 07016B   25319.43528175 -.00000198  00000+0  00000+0 0  9990
2 31307   2.4295  82.6026 0006220 160.1619 243.7411  1.00271571 67667
ZHONGXING-6B            
1 31800U 07031A   25319.58270958 -.00000350  00000+0  00000+0 0  9994
2 31800   1.8418  84.0276 0005202 170.0390 124.0186  1.00275373 67285
DIRECTV 10              
1 31862U 07032A   25318.64692090 -.00000100  00000+0  00000+0 0  9997
2 31862   0.0011 220.6123 0000090 251.8534  71.6514  1.00273530 43447
OPTUS D2                
1 32252U 07044A   25319.41820830 -.00000047  00000+0  00000+0 0  9995
2 32252   1.5220  84.6621 0003616 158.3542 151.0741  0.99346417 66416
INTELSAT 11 (IS-11)     
1 32253U 07044B   25319.30666766 -.00000211  00000+0  00000+0 0  9993
2 32253   3.0072  81.2899 0009058 151.9140 278.2086  0.99053405 66335
WGS F1 (USA 195)        
1 32258U 07046A   25318.73020806 -.00000263  00000+0  00000+0 0  9992
2 32258   0.1537  87.4918 0000932 162.3968  24.5880  1.00271488 50186
SKYNET 5B               
1 32294U 07056B   25319.45712189  .00000149  00000+0  00000+0 0  9997
2 32294   4.7060  76.0593 0003706 157.2980  11.1045  1.00273680 66053
ASTRA 4A                
1 32299U 07057A   25319.35322574  .00000039  00000+0  00000+0 0  9995
2 32299   0.0492  81.4822 0002465 153.3795 311.8059  1.00271752 49507
HORIZONS-2              
1 32388U 07063B   25319.30206020 -.00000246  00000+0  00000+0 0  9994
2 32388   2.0490  83.2653 0004513 173.8540 192.4864  1.00270067 65670
THURAYA-3               
1 32404U 08001A   25319.25761405 -.00000296  00000+0  00000+0 0  9998
2 32404   5.6294  35.3411 0002360 202.9688   7.5394  1.00272527 65346
THOR 5                  
1 32487U 08006A   25319.23794060 -.00000003  00000+0  00000+0 0  9991
2 32487   0.0152 261.7316 0002355 331.9516 265.8134  1.00271366 65177
AMC-14                  
1 32708U 08011A   25317.81721990  .00000104  00000+0  00000+0 0  9998
2 32708  23.7449  23.1175 0038181 351.9137   2.6463  1.00276474 66004
DIRECTV 11              
1 32729U 08013A   25319.31698242 -.00000119  00000+0  00000+0 0  9990
2 32729   0.0333 125.7764 0000133  47.6003 256.2113  1.00271765 43447
ICO G1                  
1 32763U 08016A   25319.38900483 -.00000166  00000+0  00000+0 0  9993
2 32763   5.5016  36.6403 0002506 182.6225 242.6727  1.00272670 64400
VINASAT-1               
1 32767U 08018A   25319.47826867 -.00000321  00000+0  00000+0 0  9995
2 32767   0.0181   0.9841 0002097 254.0704 103.9016  1.00272715 64442
STAR ONE C2             
1 32768U 08018B   25319.39889057 -.00000270  00000+0  00000+0 0  9990
2 32768   0.6940  84.0883 0002498 161.9946 247.2846  1.00271269 64514
AMOS-3                  
1 32794U 08022A   25319.23724727 -.00000029  00000+0  00000+0 0  9991
2 32794   0.0055  96.5623 0003902 122.8829 276.4312  1.00272600 80195
GALAXY 18 (G-18)        
1 32951U 08024A   25319.46178214  .00000032  00000+0  00000+0 0  9990
2 32951   0.0306  64.9863 0003065 175.5345 217.5286  1.00272809 43716
ZHONGXING-9             
1 33051U 08028A   25319.47046862 -.00000242  00000+0  00000+0 0  9994
2 33051   0.2225  89.2106 0008399 165.4199  61.9779  1.00271845 63898
SKYNET 5C               
1 33055U 08030A   25319.30588766 -.00000132  00000+0  00000+0 0  9995
2 33055   3.2401  79.5669 0003723 159.0696 268.3210  1.00272264 63815
TURKSAT 3A              
1 33056U 08030B   25319.46032858  .00000153  00000+0  00000+0 0  9991
2 33056   0.0557  86.1892 0003106 131.6093  44.7474  1.00268835 50214
INTELSAT 25 (IS-25)     
1 33153U 08034A   25319.44585514 -.00000216  00000+0  00000+0 0  9994
2 33153   2.1559  82.9583 0005081 168.5833 292.2627  1.00270391 63554
ECHOSTAR 11             
1 33207U 08035A   25319.44388215 -.00000050  00000+0  00000+0 0  9990
2 33207   0.4504  86.5772 0002182 137.1652 240.8546  1.00272423 49073
SUPERBIRD-C2            
1 33274U 08038A   25319.52240814 -.00000289  00000+0  00000+0 0  9992
2 33274   1.8085  83.9927 0000385  90.2699 208.5173  1.00156010103589
AMC-21                  
1 33275U 08038B   25319.49267330  .00000044  00000+0  00000+0 0  9999
2 33275   2.3949  82.9014 0003066 157.8996 226.5011  1.00272363 63351
INMARSAT 4-F3           
1 33278U 08039A   25318.46897771 -.00000137  00000+0  00000+0 0  9991
2 33278   4.1125  30.6623 0003040 210.4217 243.5942  1.00270630 44390
NIMIQ 4                 
1 33373U 08044A   25319.43588843 -.00000214  00000+0  00000+0 0  9994
2 33373   0.0205 292.2684 0001731 304.5837 252.8582  1.00273408 62840
GALAXY 19 (G-19)        
1 33376U 08045A   25319.43285507 -.00000133  00000+0  00000+0 0  9999
2 33376   0.0278  65.9124 0002764 162.2989 245.4030  1.00272087 62760
ASTRA 1M                
1 33436U 08057A   25319.31325439  .00000127  00000+0  00000+0 0  9997
2 33436   0.0802  79.3331 0003891 127.8808 339.4311  1.00272911 43590
EUTELSAT HOTBIRD 13C    
1 33459U 08065A   25319.44698183 -.00000210  00000+0  00000+0 0  9998
2 33459   2.3996  81.7115 0001208 111.0950 357.1076  1.00054886 45208
EXPRESS-AM44            
1 33595U 09007A   25319.37860142 -.00000081  00000+0  00000+0 0  9990
2 33595   2.9127  81.0218 0004465 156.2423 302.7763  1.00271892 50148
NSS-9                   
1 33749U 09008A   25319.41708163  .00000079  00000+0  00000+0 0  9997
2 33749   0.7074  84.4575 0002059 138.1594 165.3688  1.00271343 61371
TELSTAR 11N             
1 34111U 09009A   25319.23066057  .00000000  00000+0  00000+0 0  9995
2 34111   0.0173 290.4676 0002131 294.9879 234.6012  1.00268443 44107
WGS F2 (USA 204)        
1 34713U 09017A   25318.75005484  .00000000  00000+0  00000+0 0  9995
2 34713   0.0103 274.7003 0000237  46.4210  60.4960  1.00269953 43463
SES-7 (PROTOSTAR 2)     
1 34941U 09027A   25319.47358865 -.00000338  00000+0  00000+0 0  9998
2 34941   0.0523  84.0269 0001973 171.1981  78.3453  1.00272447 60485
MEASAT-3A               
1 35362U 09032A   25319.45461596 -.00000103  00000+0  00000+0 0  9996
2 35362   0.0494  68.0330 0002946 177.0434 133.3952  1.00272111  5887
GOES 14                 
1 35491U 09033A   25319.44223656 -.00000059  00000+0  00000+0 0  9992
2 35491   1.1268  85.7164 0004002 140.2005 239.6494  1.00272903  4455
FM-5                    
1 35493U 09034A   25319.39149273 -.00000194  00000+0  00000+0 0  9991
2 35493   0.0173 276.1203 0000621 229.0117 324.4046  1.00271393 44501
